[
    {
        "Altitude(m)": 558271.160086304,
        "Argument of Periapsis(deg)": 0.026491964442854003,
        "Eccentricity": 0.0,
        "Inclination(deg)": 53.0,
        "Latitude(deg)": 46.03074248154474,
        "Longitude(deg)": 72.79247536011955,
        "Mean Anomaly(deg)": 64.00277147031036,
        "RAAN(deg)": 124.96057347411207,
        "Satellite Name": "Starlink Shell 1 551",
        "Satellite Number": 551,
        "Semi-Major Axis(m)": 6931778.249405717,
        "Time(s)": 760
    },
    {
        "Altitude(m)": 558342.2801747499,
        "Argument of Periapsis(deg)": 0.02684054292236524,
        "Eccentricity": 0.0,
        "Inclination(deg)": 53.0,
        "Latitude(deg)": 46.34375836656747,
        "Longitude(deg)": 73.53417065571303,
        "Mean Anomaly(deg)": 64.62960267386708,
        "RAAN(deg)": 124.96005470403462,
        "Satellite Name": "Starlink Shell 1 551",
        "Satellite Number": 551,
        "Semi-Major Axis(m)": 6931778.249405717,
        "Time(s)": 770
    },
    {
        "Altitude(m)": 558412.2790676442,
        "Argument of Periapsis(deg)": 0.027189121401876473,
        "Eccentricity": 0.0,
        "Inclination(deg)": 53.0,
        "Latitude(deg)": 46.65133633861401,
        "Longitude(deg)": 74.2847675862188,
        "Mean Anomaly(deg)": 65.25643387742377,
        "RAAN(deg)": 124.95953593395714,
        "Satellite Name": "Starlink Shell 1 551",
        "Satellite Number": 551,
        "Semi-Major Axis(m)": 6931778.249405717,
        "Time(s)": 780
    },
    {
        "Altitude(m)": 558481.1134268957,
        "Argument of Periapsis(deg)": 0.02753769988138771,
        "Eccentricity": 0.0,
        "Inclination(deg)": 53.0,
        "Latitude(deg)": 46.95335685320051,
        "Longitude(deg)": 75.04430378731902,
        "Mean Anomaly(deg)": 65.8832650809805,
        "RAAN(deg)": 124.95901716387965,
        "Satellite Name": "Starlink Shell 1 551",
        "Satellite Number": 551,
        "Semi-Major Axis(m)": 6931778.249405717,
        "Time(s)": 790
    },
    {
        "Altitude(m)": 558548.7407107784,
        "Argument of Periapsis(deg)": 0.02788627836089895,
        "Eccentricity": 0.0,
        "Inclination(deg)": 53.0,
        "Latitude(deg)": 47.249699238386775,
        "Longitude(deg)": 75.8128075758412,
        "Mean Anomaly(deg)": 66.5100962845372,
        "RAAN(deg)": 124.95849839380219,
        "Satellite Name": "Starlink Shell 1 551",
        "Satellite Number": 551,
        "Semi-Major Axis(m)": 6931778.249405717,
        "Time(s)": 800
    },
    {
        "Altitude(m)": 558615.1191950261,
        "Argument of Periapsis(deg)": 0.02823485684041019,
        "Eccentricity": 0.0,
        "Inclination(deg)": 53.0,
        "Latitude(deg)": 47.540241811392995,
        "Longitude(deg)": 76.59029790205233,
        "Mean Anomaly(deg)": 67.13692748809393,
        "RAAN(deg)": 124.95797962372474,
        "Satellite Name": "Starlink Shell 1 551",
        "Satellite Number": 551,
        "Semi-Major Axis(m)": 6931778.249405717,
        "Time(s)": 810
    },
    {
        "Altitude(m)": 558680.2079935346,
        "Argument of Periapsis(deg)": 0.028583435319921423,
        "Eccentricity": 0.0,
        "Inclination(deg)": 53.0,
        "Latitude(deg)": 47.82486200577411,
        "Longitude(deg)": 77.37678429701117,
        "Mean Anomaly(deg)": 67.76375869165062,
        "RAAN(deg)": 124.95746085364723,
        "Satellite Name": "Starlink Shell 1 551",
        "Satellite Number": 551,
        "Semi-Major Axis(m)": 6931778.249405717,
        "Time(s)": 820
    },
    {
        "Altitude(m)": 558743.9670785965,
        "Argument of Periapsis(deg)": 0.028932013799432665,
        "Eccentricity": 0.0,
        "Inclination(deg)": 53.0,
        "Latitude(deg)": 48.10343650940435,
        "Longitude(deg)": 78.17226530487014,
        "Mean Anomaly(deg)": 68.39058989520737,
        "RAAN(deg)": 124.95694208356976,
        "Satellite Name": "Starlink Shell 1 551",
        "Satellite Number": 551,
        "Semi-Major Axis(m)": 6931778.249405717,
        "Time(s)": 830
    },
    {
        "Altitude(m)": 558806.3573007046,
        "Argument of Periapsis(deg)": 0.029280592278943897,
        "Eccentricity": 0.0,
        "Inclination(deg)": 53.0,
        "Latitude(deg)": 48.37584141347687,
        "Longitude(deg)": 78.97672842893465,
        "Mean Anomaly(deg)": 69.01742109876407,
        "RAAN(deg)": 124.95642331349231,
        "Satellite Name": "Starlink Shell 1 551",
        "Satellite Number": 551,
        "Semi-Major Axis(m)": 6931778.249405717,
        "Time(s)": 840
    },
    {
        "Altitude(m)": 558867.3404079238,
        "Argument of Periapsis(deg)": 0.029629170758455132,
        "Eccentricity": 0.0,
        "Inclination(deg)": 53.0,
        "Latitude(deg)": 48.641952372665564,
        "Longitude(deg)": 79.79015008196491,
        "Mean Anomaly(deg)": 69.64425230232078,
        "RAAN(deg)": 124.95590454341482,
        "Satellite Name": "Starlink Shell 1 551",
        "Satellite Number": 551,
        "Semi-Major Axis(m)": 6931778.249405717,
        "Time(s)": 850
    },
    {
        "Altitude(m)": 558926.8790647617,
        "Argument of Periapsis(deg)": 0.02997774923796637,
        "Eccentricity": 0.0,
        "Inclination(deg)": 53.0,
        "Latitude(deg)": 48.901644776531974,
        "Longitude(deg)": 80.61249386339678,
        "Mean Anomaly(deg)": 70.27108350587751,
        "RAAN(deg)": 124.95538577333735,
        "Satellite Name": "Starlink Shell 1 551",
        "Satellite Number": 551,
        "Semi-Major Axis(m)": 6931778.249405717,
        "Time(s)": 860
    },
    {
        "Altitude(m)": 558984.9368706052,
        "Argument of Periapsis(deg)": 0.030326327717477602,
        "Eccentricity": 0.0,
        "Inclination(deg)": 53.0,
        "Latitude(deg)": 49.154793932192156,
        "Longitude(deg)": 81.44371136985151,
        "Mean Anomaly(deg)": 70.8979147094342,
        "RAAN(deg)": 124.95486700325988,
        "Satellite Name": "Starlink Shell 1 551",
        "Satellite Number": 551,
        "Semi-Major Axis(m)": 6931778.249405717,
        "Time(s)": 870
    },
    {
        "Altitude(m)": 559041.4783776791,
        "Argument of Periapsis(deg)": 0.030674906196988847,
        "Eccentricity": 0.0,
        "Inclination(deg)": 53.0,
        "Latitude(deg)": 49.401275258175424,
        "Longitude(deg)": 82.28374050022538,
        "Mean Anomaly(deg)": 71.52474591299092,
        "RAAN(deg)": 124.9543482331824,
        "Satellite Name": "Starlink Shell 1 551",
        "Satellite Number": 551,
        "Semi-Major Axis(m)": 6931778.249405717,
        "Time(s)": 880
    },
    {
        "Altitude(m)": 559096.4691084954,
        "Argument of Periapsis(deg)": 0.031023484676500086,
        "Eccentricity": 0.0,
        "Inclination(deg)": 53.0,
        "Latitude(deg)": 49.640964489326,
        "Longitude(deg)": 83.13250546225551,
        "Mean Anomaly(deg)": 72.15157711654763,
        "RAAN(deg)": 124.95382946310492,
        "Satellite Name": "Starlink Shell 1 551",
        "Satellite Number": 551,
        "Semi-Major Axis(m)": 6931778.249405717,
        "Time(s)": 890
    },
    {
        "Altitude(m)": 559149.8755728458,
        "Argument of Periapsis(deg)": 0.03137206315601132,
        "Eccentricity": 0.0,
        "Inclination(deg)": 53.0,
        "Latitude(deg)": 49.87373789250149,
        "Longitude(deg)": 83.98991680428003,
        "Mean Anomaly(deg)": 72.77840832010435,
        "RAAN(deg)": 124.95331069302748,
        "Satellite Name": "Starlink Shell 1 551",
        "Satellite Number": 551,
        "Semi-Major Axis(m)": 6931778.249405717,
        "Time(s)": 900
    },
    {
        "Altitude(m)": 559201.6652842603,
        "Argument of Periapsis(deg)": 0.03172064163552255,
        "Eccentricity": 0.0,
        "Inclination(deg)": 53.0,
        "Latitude(deg)": 50.099472492725205,
        "Longitude(deg)": 84.85586996420561,
        "Mean Anomaly(deg)": 73.40523952366107,
        "RAAN(deg)": 124.95279192294998,
        "Satellite Name": "Starlink Shell 1 551",
        "Satellite Number": 551,
        "Semi-Major Axis(m)": 6931778.249405717,
        "Time(s)": 910
    },
    {
        "Altitude(m)": 559251.8067759947,
        "Argument of Periapsis(deg)": 0.0320692201150338,
        "Eccentricity": 0.0,
        "Inclination(deg)": 53.0,
        "Latitude(deg)": 50.3180463093436,
        "Longitude(deg)": 85.73024536648289,
        "Mean Anomaly(deg)": 74.03207072721779,
        "RAAN(deg)": 124.95227315287252,
        "Satellite Name": "Starlink Shell 1 551",
        "Satellite Number": 551,
        "Semi-Major Axis(m)": 6931778.249405717,
        "Time(s)": 920
    },
    {
        "Altitude(m)": 559300.2696164798,
        "Argument of Periapsis(deg)": 0.032417798594545036,
        "Eccentricity": 0.0,
        "Inclination(deg)": 53.0,
        "Latitude(deg)": 50.52933860163003,
        "Longitude(deg)": 86.61290855937622,
        "Mean Anomaly(deg)": 74.6589019307745,
        "RAAN(deg)": 124.95175438279504,
        "Satellite Name": "Starlink Shell 1 551",
        "Satellite Number": 551,
        "Semi-Major Axis(m)": 6931778.249405717,
        "Time(s)": 930
    },
    {
        "Altitude(m)": 559347.0244242693,
        "Argument of Periapsis(deg)": 0.03276637707405627,
        "Eccentricity": 0.0,
        "Inclination(deg)": 53.0,
        "Latitude(deg)": 50.733230123159096,
        "Longitude(deg)": 87.50370888487411,
        "Mean Anomaly(deg)": 75.28573313433121,
        "RAAN(deg)": 124.95123561271757,
        "Satellite Name": "Starlink Shell 1 551",
        "Satellite Number": 551,
        "Semi-Major Axis(m)": 6931778.249405717,
        "Time(s)": 940
    }
]